{
  "norad_id": 55488,
  "name": "STARLINK-5706",
  "history": [
    {
      "epoch": "2026-03-28T16:53:40.712352",
      "apogee_km": 486.4723474304301,
      "perigee_km": 484.6603297490419,
      "latitude_deg": -3.3352809393765592,
      "longitude_deg": 156.3785692800302,
      "semi_major_axis_km": 6863.703338589736,
      "eccentricity": 0.000132,
      "inclination_deg": 43.0017,
      "raan_deg": 232.3046,
      "arg_perigee_deg": 269.5676,
      "mean_anomaly_deg": 90.5024,
      "mean_motion_rev_day": 15.26739724
    }
  ]
}